1 40889U 15045A   18352.06109367 -.00000036  00000-0  00000+0 0  9994
2 40889  56.5927 297.1374 0003707 349.5219  10.4658  1.70474428 20337
1 40889U 15045A   18353.23426302 -.00000037  00000-0  00000-0 0  9997
2 40889  56.5927 297.1053 0003721 349.9100  10.0759  1.70474400 20350
1 40889U 15045A   18358.51356750 -.00000034  00000-0  00000+0 0  9998
2 40889  56.5872 296.9608 0003845 353.1053   6.8968  1.70474274 20447
1 40889U 15045A   18359.10015875 -.00000035  00000-0  00000-0 0  9996
2 40889  56.5865 296.9448 0003865 353.4860   6.5189  1.70474268 20458
1 40889U 15045A   18360.85992489 -.00000042  00000-0  00000+0 0  9992
2 40889  56.5860 296.8965 0003874 354.0347   5.9746  1.70474269 20489
1 40889U 15045A   18360.85992575 -.00000042  00000-0  00000-0 0  9999
2 40889  56.5857 296.8965 0003876 354.4529   5.5567  1.70474268 20489
1 40889U 15045A   18362.61968247 -.00000054  00000-0  00000-0 0  9997
2 40889  56.5840 296.8483 0003920 355.3685   4.6394  1.70474283 20518
1 40889U 15045A   18363.20626625 -.00000059  00000-0  00000+0 0  9998
2 40889  56.5834 296.8322 0003934 355.6454   4.3609  1.70474294 20524
1 40889U 15045A   18365.55260165 -.00000069  00000-0  00000+0 0  9992
2 40889  56.5813 296.7679 0003996 356.8487   3.1515  1.70474357 20569
